{
  "type": "FeatureCollection",
  "features": [
    {
      "type": "Feature",
      "properties": {
        "norad_id": 22490,
        "name": "SCD 1",
        "group": "resource",
        "lat": -15.077066593420655,
        "lon": 155.89460648455866,
        "alt_km": 727.9393686500098,
        "timestamp": "2025-12-09T04:51:47.163833+00:00",
        "meta_object_name": "SCD 1",
        "meta_object_id": "1993-009B",
        "meta_epoch": "2025-12-08T15:21:15.134400",
        "meta_mean_motion": 14.45994939,
        "meta_eccentricity": 0.0041725,
        "meta_inclination": 24.9705,
        "meta_ra_of_asc_node": 303.9966,
        "meta_arg_of_pericenter": 281.4311,
        "meta_mean_anomaly": 241.0109,
        "meta_ephemeris_type": 0,
        "meta_classification_type": "U",
        "meta_norad_cat_id": 22490,
        "meta_element_set_no": 999,
        "meta_rev_at_epoch": 73350,
        "meta_bstar": 0.00019055,
        "meta_mean_motion_dot": 8.83e-06,
        "meta_mean_motion_ddot": 0,
        "tle_line1": "1 22490U 93009B   25342.63975850  .00000883  00000+0  19055-3 0  9998",
        "tle_line2": "2 22490  24.9705 303.9966 0041725 281.4311 241.0109 14.45994939733503"
      },
      "geometry": {
        "type": "Point",
        "coordinates": [
          155.89460648455866,
          -15.077066593420655
        ]
      }
    },
    {
      "type": "Feature",
      "properties": {
        "norad_id": 25397,
        "name": "TECHSAT 1B (GO-32)",
        "group": "resource",
        "lat": 41.11909232131095,
        "lon": -41.611614913288484,
        "alt_km": 805.8137085931303,
        "timestamp": "2025-12-09T04:51:47.163861+00:00",
        "meta_object_name": "TECHSAT 1B (GO-32)",
        "meta_object_id": "1998-043D",
        "meta_epoch": "2025-12-08T20:14:18.110688",
        "meta_mean_motion": 14.24375538,
        "meta_eccentricity": 0.0002151,
        "meta_inclination": 98.9916,
        "meta_ra_of_asc_node": 325.9655,
        "meta_arg_of_pericenter": 63.4647,
        "meta_mean_anomaly": 296.6751,
        "meta_ephemeris_type": 0,
        "meta_classification_type": "U",
        "meta_norad_cat_id": 25397,
        "meta_element_set_no": 999,
        "meta_rev_at_epoch": 42423,
        "meta_bstar": 0.0001104,
        "meta_mean_motion_dot": 2.09e-06,
        "meta_mean_motion_ddot": 0,
        "tle_line1": "1 25397U 98043D   25342.84326517  .00000209  00000+0  11040-3 0  9991",
        "tle_line2": "2 25397  98.9916 325.9655 0002151  63.4647 296.6751 14.24375538424237"
      },
      "geometry": {
        "type": "Point",
        "coordinates": [
          -41.611614913288484,
          41.11909232131095
        ]
      }
    },
    {
      "type": "Feature",
      "properties": {
        "norad_id": 25504,
        "name": "SCD 2",
        "group": "resource",
        "lat": -24.38408599676545,
        "lon": 60.36728701877671,
        "alt_km": 729.983387502898,
        "timestamp": "2025-12-09T04:51:47.163876+00:00",
        "meta_object_name": "SCD 2",
        "meta_object_id": "1998-060A",
        "meta_epoch": "2025-12-08T19:29:38.578848",
        "meta_mean_motion": 14.45420381,
        "meta_eccentricity": 0.0016588,
        "meta_inclination": 24.9931,
        "meta_ra_of_asc_node": 166.1145,
        "meta_arg_of_pericenter": 271.5714,
        "meta_mean_anomaly": 110.8865,
        "meta_ephemeris_type": 0,
        "meta_classification_type": "U",
        "meta_norad_cat_id": 25504,
        "meta_element_set_no": 999,
        "meta_rev_at_epoch": 43275,
        "meta_bstar": 0.00014202,
        "meta_mean_motion_dot": 6.91e-06,
        "meta_mean_motion_ddot": 0,
        "tle_line1": "1 25504U 98060A   25342.81225207  .00000691  00000+0  14202-3 0  9999",
        "tle_line2": "2 25504  24.9931 166.1145 0016588 271.5714 110.8865 14.45420381432757"
      },
      "geometry": {
        "type": "Point",
        "coordinates": [
          60.36728701877671,
          -24.38408599676545
        ]
      }
    },
    {
      "type": "Feature",
      "properties": {
        "norad_id": 25757,
        "name": "DLR-TUBSAT",
        "group": "resource",
        "lat": -79.79540799264377,
        "lon": 89.8003822254402,
        "alt_km": 720.5256270248437,
        "timestamp": "2025-12-09T04:51:47.163889+00:00",
        "meta_object_name": "DLR-TUBSAT",
        "meta_object_id": "1999-029B",
        "meta_epoch": "2025-12-08T21:02:06.086112",
        "meta_mean_motion": 14.52355651,
        "meta_eccentricity": 0.0013683,
        "meta_inclination": 98.656,
        "meta_ra_of_asc_node": 327.271,
        "meta_arg_of_pericenter": 204.8736,
        "meta_mean_anomaly": 155.18,
        "meta_ephemeris_type": 0,
        "meta_classification_type": "U",
        "meta_norad_cat_id": 25757,
        "meta_element_set_no": 999,
        "meta_rev_at_epoch": 40562,
        "meta_bstar": 8.921e-05,
        "meta_mean_motion_dot": 3.15e-06,
        "meta_mean_motion_ddot": 0,
        "tle_line1": "1 25757U 99029B   25342.87645933  .00000315  00000+0  89210-4 0  9998",
        "tle_line2": "2 25757  98.6560 327.2710 0013683 204.8736 155.1800 14.52355651405629"
      },
      "geometry": {
        "type": "Point",
        "coordinates": [
          89.8003822254402,
          -79.79540799264377
        ]
      }
    },
    {
      "type": "Feature",
      "properties": {
        "norad_id": 25994,
        "name": "TERRA",
        "group": "resource",
        "lat": -38.963203892417084,
        "lon": -151.49312481546465,
        "alt_km": 697.634456325186,
        "timestamp": "2025-12-09T04:51:47.163901+00:00",
        "meta_object_name": "TERRA",
        "meta_object_id": "1999-068A",
        "meta_epoch": "2025-12-08T20:03:01.970208",
        "meta_mean_motion": 14.6094659,
        "meta_eccentricity": 0.000353,
        "meta_inclination": 97.9753,
        "meta_ra_of_asc_node": 34.6632,
        "meta_arg_of_pericenter": 105.6119,
        "meta_mean_anomaly": 343.6228,
        "meta_ephemeris_type": 0,
        "meta_classification_type": "U",
        "meta_norad_cat_id": 25994,
        "meta_element_set_no": 999,
        "meta_rev_at_epoch": 38181,
        "meta_bstar": 0.00021908,
        "meta_mean_motion_dot": 1.029e-05,
        "meta_mean_motion_ddot": 0,
        "tle_line1": "1 25994U 99068A   25342.83543947  .00001029  00000+0  21908-3 0  9994",
        "tle_line2": "2 25994  97.9753  34.6632 0003530 105.6119 343.6228 14.60946590381812"
      },
      "geometry": {
        "type": "Point",
        "coordinates": [
          -151.49312481546465,
          -38.963203892417084
        ]
      }
    },
    {
      "type": "Feature",
      "properties": {
        "norad_id": 27004,
        "name": "MAROC-TUBSAT",
        "group": "resource",
        "lat": -75.89309248736733,
        "lon": -165.01332163960683,
        "alt_km": 992.0881958779091,
        "timestamp": "2025-12-09T04:51:47.163913+00:00",
        "meta_object_name": "MAROC-TUBSAT",
        "meta_object_id": "2001-056D",
        "meta_epoch": "2025-12-08T17:02:58.745760",
        "meta_mean_motion": 13.70252601,
        "meta_eccentricity": 0.0019086,
        "meta_inclination": 99.7912,
        "meta_ra_of_asc_node": 151.0848,
        "meta_arg_of_pericenter": 270.8578,
        "meta_mean_anomaly": 102.4734,
        "meta_ephemeris_type": 0,
        "meta_classification_type": "U",
        "meta_norad_cat_id": 27004,
        "meta_element_set_no": 999,
        "meta_rev_at_epoch": 20010,
        "meta_bstar": 4.4503e-05,
        "meta_mean_motion_dot": -7e-08,
        "meta_mean_motion_ddot": 0,
        "tle_line1": "1 27004U 01056D   25342.71040215 -.00000007  00000+0  44503-4 0  9998",
        "tle_line2": "2 27004  99.7912 151.0848 0019086 270.8578 102.4734 13.70252601200101"
      },
      "geometry": {
        "type": "Point",
        "coordinates": [
          -165.01332163960683,
          -75.89309248736733
        ]
      }
    },
    {
      "type": "Feature",
      "properties": {
        "norad_id": 27424,
        "name": "AQUA",
        "group": "resource",
        "lat": 78.84293932338875,
        "lon": -104.52308752719297,
        "alt_km": 679.4452482973411,
        "timestamp": "2025-12-09T04:51:47.163924+00:00",
        "meta_object_name": "AQUA",
        "meta_object_id": "2002-022A",
        "meta_epoch": "2025-12-08T20:24:34.597152",
        "meta_mean_motion": 14.6179633,
        "meta_eccentricity": 9.42e-05,
        "meta_inclination": 98.4032,
        "meta_ra_of_asc_node": 303.6664,
        "meta_arg_of_pericenter": 113.9887,
        "meta_mean_anomaly": 276.1729,
        "meta_ephemeris_type": 0,
        "meta_classification_type": "U",
        "meta_norad_cat_id": 27424,
        "meta_element_set_no": 999,
        "meta_rev_at_epoch": 25546,
        "meta_bstar": 0.0004457,
        "meta_mean_motion_dot": 2.176e-05,
        "meta_mean_motion_ddot": 0,
        "tle_line1": "1 27424U 02022A   25342.85040043  .00002176  00000+0  44570-3 0  9993",
        "tle_line2": "2 27424  98.4032 303.6664 0000942 113.9887 276.1729 14.61796330255463"
      },
      "geometry": {
        "type": "Point",
        "coordinates": [
          -104.52308752719297,
          78.84293932338875
        ]
      }
    }
  ]
}